[{"OBJECT_NAME":"ISS (ZARYA)","OBJECT_ID":"1998-067A","EPOCH":"2026-04-03T02:25:58.213344","MEAN_MOTION":15.48735493,"ECCENTRICITY":0.00062367,"INCLINATION":51.6327,"RA_OF_ASC_NODE":311.671,"ARG_OF_PERICENTER":265.7481,"MEAN_ANOMALY":94.2795,"EPHEMERIS_TYPE":0,"CLASSIFICATION_TYPE":"U","NORAD_CAT_ID":25544,"ELEMENT_SET_NO":999,"REV_AT_EPOCH":56011,"BSTAR":0.00022784187,"MEAN_MOTION_DOT":0.00012012,"MEAN_MOTION_DDOT":0},{"OBJECT_NAME":"POISK","OBJECT_ID":"2009-060A","EPOCH":"2026-04-03T02:25:58.213344","MEAN_MOTION":15.48735493,"ECCENTRICITY":0.00062367,"INCLINATION":51.6327,"RA_OF_ASC_NODE":311.671,"ARG_OF_PERICENTER":265.7481,"MEAN_ANOMALY":94.2795,"EPHEMERIS_TYPE":0,"CLASSIFICATION_TYPE":"U","NORAD_CAT_ID":36086,"ELEMENT_SET_NO":999,"REV_AT_EPOCH":55958,"BSTAR":0.00022784187,"MEAN_MOTION_DOT":0.00012012,"MEAN_MOTION_DDOT":0},{"OBJECT_NAME":"CSS (TIANHE)","OBJECT_ID":"2021-035A","EPOCH":"2026-04-03T06:41:02.129568","MEAN_MOTION":15.619243,"ECCENTRICITY":0.00037723,"INCLINATION":41.4675,"RA_OF_ASC_NODE":58.4057,"ARG_OF_PERICENTER":112.9182,"MEAN_ANOMALY":247.2056,"EPHEMERIS_TYPE":0,"CLASSIFICATION_TYPE":"U","NORAD_CAT_ID":48274,"ELEMENT_SET_NO":999,"REV_AT_EPOCH":28145,"BSTAR":0.0003541195,"MEAN_MOTION_DOT":0.00031513,"MEAN_MOTION_DDOT":0},{"OBJECT_NAME":"ISS (NAUKA)","OBJECT_ID":"2021-066A","EPOCH":"2026-04-03T02:25:58.213344","MEAN_MOTION":15.48735493,"ECCENTRICITY":0.00062367,"INCLINATION":51.6327,"RA_OF_ASC_NODE":311.671,"ARG_OF_PERICENTER":265.7481,"MEAN_ANOMALY":94.2795,"EPHEMERIS_TYPE":0,"CLASSIFICATION_TYPE":"U","NORAD_CAT_ID":49044,"ELEMENT_SET_NO":999,"REV_AT_EPOCH":55962,"BSTAR":0.00022784187,"MEAN_MOTION_DOT":0.00012012,"MEAN_MOTION_DDOT":0},{"OBJECT_NAME":"FREGAT DEB","OBJECT_ID":"2011-037PF","EPOCH":"2026-04-03T02:18:13.629312","MEAN_MOTION":12.40880567,"ECCENTRICITY":0.0957001,"INCLINATION":51.6428,"RA_OF_ASC_NODE":227.4642,"ARG_OF_PERICENTER":115.3632,"MEAN_ANOMALY":254.9383,"EPHEMERIS_TYPE":0,"CLASSIFICATION_TYPE":"U","NORAD_CAT_ID":49271,"ELEMENT_SET_NO":999,"REV_AT_EPOCH":21572,"BSTAR":0.025934358,"MEAN_MOTION_DOT":0.00018071,"MEAN_MOTION_DDOT":0},{"OBJECT_NAME":"CSS (WENTIAN)","OBJECT_ID":"2022-085A","EPOCH":"2026-04-03T06:41:02.129568","MEAN_MOTION":15.619243,"ECCENTRICITY":0.00037723,"INCLINATION":41.4675,"RA_OF_ASC_NODE":58.4057,"ARG_OF_PERICENTER":112.9182,"MEAN_ANOMALY":247.2056,"EPHEMERIS_TYPE":0,"CLASSIFICATION_TYPE":"U","NORAD_CAT_ID":53239,"ELEMENT_SET_NO":999,"REV_AT_EPOCH":28115,"BSTAR":0.0003541195,"MEAN_MOTION_DOT":0.00031513,"MEAN_MOTION_DDOT":0},{"OBJECT_NAME":"CSS (MENGTIAN)","OBJECT_ID":"2022-143A","EPOCH":"2026-04-03T06:41:02.129568","MEAN_MOTION":15.619243,"ECCENTRICITY":0.00037723,"INCLINATION":41.4675,"RA_OF_ASC_NODE":58.4057,"ARG_OF_PERICENTER":112.9182,"MEAN_ANOMALY":247.2056,"EPHEMERIS_TYPE":0,"CLASSIFICATION_TYPE":"U","NORAD_CAT_ID":54216,"ELEMENT_SET_NO":999,"REV_AT_EPOCH":28115,"BSTAR":0.0003541195,"MEAN_MOTION_DOT":0.00031513,"MEAN_MOTION_DDOT":0},{"OBJECT_NAME":"TIANZHOU-9","OBJECT_ID":"2025-149A","EPOCH":"2026-04-03T06:41:02.129568","MEAN_MOTION":15.619243,"ECCENTRICITY":0.00037723,"INCLINATION":41.4675,"RA_OF_ASC_NODE":58.4057,"ARG_OF_PERICENTER":112.9182,"MEAN_ANOMALY":247.2056,"EPHEMERIS_TYPE":0,"CLASSIFICATION_TYPE":"U","NORAD_CAT_ID":64786,"ELEMENT_SET_NO":999,"REV_AT_EPOCH":28115,"BSTAR":0.0003541195,"MEAN_MOTION_DOT":0.00031513,"MEAN_MOTION_DDOT":0},{"OBJECT_NAME":"PROGRESS-MS 32","OBJECT_ID":"2025-204A","EPOCH":"2026-04-03T02:25:58.213344","MEAN_MOTION":15.48735493,"ECCENTRICITY":0.00062367,"INCLINATION":51.6327,"RA_OF_ASC_NODE":311.671,"ARG_OF_PERICENTER":265.7481,"MEAN_ANOMALY":94.2795,"EPHEMERIS_TYPE":0,"CLASSIFICATION_TYPE":"U","NORAD_CAT_ID":65586,"ELEMENT_SET_NO":999,"REV_AT_EPOCH":55450,"BSTAR":0.00022784187,"MEAN_MOTION_DOT":0.00012012,"MEAN_MOTION_DDOT":0},{"OBJECT_NAME":"YOTSUBA-KULOVER","OBJECT_ID":"1998-067XN","EPOCH":"2026-04-03T06:11:37.373280","MEAN_MOTION":15.97114848,"ECCENTRICITY":0.00072812,"INCLINATION":51.6141,"RA_OF_ASC_NODE":288.5678,"ARG_OF_PERICENTER":257.8887,"MEAN_ANOMALY":102.1306,"EPHEMERIS_TYPE":0,"CLASSIFICATION_TYPE":"U","NORAD_CAT_ID":65941,"ELEMENT_SET_NO":999,"REV_AT_EPOCH":2740,"BSTAR":0.0016292744,"MEAN_MOTION_DOT":0.00726654,"MEAN_MOTION_DDOT":0.00024167875},{"OBJECT_NAME":"BOTAN","OBJECT_ID":"1998-067XQ","EPOCH":"2026-04-02T14:01:07.378752","MEAN_MOTION":15.94753553,"ECCENTRICITY":0.00073354,"INCLINATION":51.6177,"RA_OF_ASC_NODE":292.3509,"ARG_OF_PERICENTER":248.5782,"MEAN_ANOMALY":111.4444,"EPHEMERIS_TYPE":0,"CLASSIFICATION_TYPE":"U","NORAD_CAT_ID":65943,"ELEMENT_SET_NO":999,"REV_AT_EPOCH":2729,"BSTAR":0.001362905,"MEAN_MOTION_DOT":0.00534399,"MEAN_MOTION_DDOT":0.00012700727},{"OBJECT_NAME":"HRC MONOBLOCK CAMERA","OBJECT_ID":"1998-067XR","EPOCH":"2026-04-02T20:39:20.152224","MEAN_MOTION":15.64898008,"ECCENTRICITY":0.00038343,"INCLINATION":51.6271,"RA_OF_ASC_NODE":303.3082,"ARG_OF_PERICENTER":212.1629,"MEAN_ANOMALY":147.9133,"EPHEMERIS_TYPE":0,"CLASSIFICATION_TYPE":"U","NORAD_CAT_ID":66052,"ELEMENT_SET_NO":999,"REV_AT_EPOCH":2617,"BSTAR":0.00089054355,"MEAN_MOTION_DOT":0.00089308,"MEAN_MOTION_DDOT":0},{"OBJECT_NAME":"HTV-X1","OBJECT_ID":"2025-241A","EPOCH":"2026-04-03T05:38:32.920800","MEAN_MOTION":15.32512226,"ECCENTRICITY":0.00072787,"INCLINATION":51.6362,"RA_OF_ASC_NODE":314.7548,"ARG_OF_PERICENTER":267.5183,"MEAN_ANOMALY":92.4966,"EPHEMERIS_TYPE":0,"CLASSIFICATION_TYPE":"U","NORAD_CAT_ID":66174,"ELEMENT_SET_NO":999,"REV_AT_EPOCH":2470,"BSTAR":0.00016087195,"MEAN_MOTION_DOT":4.76e-5,"MEAN_MOTION_DDOT":0},{"OBJECT_NAME":"SZ-21 MODULE","OBJECT_ID":"2025-246C","EPOCH":"2026-04-03T06:04:09.839424","MEAN_MOTION":15.70567905,"ECCENTRICITY":0.00028919,"INCLINATION":41.4748,"RA_OF_ASC_NODE":51.9348,"ARG_OF_PERICENTER":225.3271,"MEAN_ANOMALY":134.7336,"EPHEMERIS_TYPE":0,"CLASSIFICATION_TYPE":"U","NORAD_CAT_ID":66515,"ELEMENT_SET_NO":999,"REV_AT_EPOCH":2193,"BSTAR":0.00047388464,"MEAN_MOTION_DOT":0.00060256,"MEAN_MOTION_DDOT":0},{"OBJECT_NAME":"SHENZHOU-22","OBJECT_ID":"2025-272A","EPOCH":"2026-04-03T06:41:02.129568","MEAN_MOTION":15.619243,"ECCENTRICITY":0.00037723,"INCLINATION":41.4675,"RA_OF_ASC_NODE":58.4057,"ARG_OF_PERICENTER":112.9182,"MEAN_ANOMALY":247.2056,"EPHEMERIS_TYPE":0,"CLASSIFICATION_TYPE":"U","NORAD_CAT_ID":66645,"ELEMENT_SET_NO":999,"REV_AT_EPOCH":28115,"BSTAR":0.0003541195,"MEAN_MOTION_DOT":0.00031513,"MEAN_MOTION_DDOT":0},{"OBJECT_NAME":"SOYUZ-MS 28","OBJECT_ID":"2025-275A","EPOCH":"2026-04-03T02:25:58.213344","MEAN_MOTION":15.48735493,"ECCENTRICITY":0.00062367,"INCLINATION":51.6327,"RA_OF_ASC_NODE":311.671,"ARG_OF_PERICENTER":265.7481,"MEAN_ANOMALY":94.2795,"EPHEMERIS_TYPE":0,"CLASSIFICATION_TYPE":"U","NORAD_CAT_ID":66664,"ELEMENT_SET_NO":999,"REV_AT_EPOCH":55986,"BSTAR":0.00022784187,"MEAN_MOTION_DOT":0.00012012,"MEAN_MOTION_DDOT":0}]
