ISS (ZARYA)             
1 25544U 98067A   26093.10136821  .00012012  00000+0  22784-3 0  9993
2 25544  51.6327 311.6710 0006236 265.7481  94.2795 15.48735493560113
POISK                   
1 36086U 09060A   26093.10136821  .00012012  00000+0  22784-3 0  9991
2 36086  51.6327 311.6710 0006236 265.7481  94.2795 15.48735493559585
CSS (TIANHE)            
1 48274U 21035A   26093.27849687  .00031513  00000+0  35412-3 0  9997
2 48274  41.4675  58.4057 0003772 112.9182 247.2056 15.61924300281453
ISS (NAUKA)             
1 49044U 21066A   26093.10136821  .00012012  00000+0  22784-3 0  9999
2 49044  51.6327 311.6710 0006236 265.7481  94.2795 15.48735493559628
FREGAT DEB              
1 49271U 11037PF  26093.09599108  .00018071  00000+0  25934-1 0  9996
2 49271  51.6428 227.4642 0957001 115.3632 254.9383 12.40880567215723
CSS (WENTIAN)           
1 53239U 22085A   26093.27849687  .00031513  00000+0  35412-3 0  9990
2 53239  41.4675  58.4057 0003772 112.9182 247.2056 15.61924300281157
CSS (MENGTIAN)          
1 54216U 22143A   26093.27849687  .00031513  00000+0  35412-3 0  9991
2 54216  41.4675  58.4057 0003772 112.9182 247.2056 15.61924300281153
TIANZHOU-9              
1 64786U 25149A   26093.27849687  .00031513  00000+0  35412-3 0  9993
2 64786  41.4675  58.4057 0003772 112.9182 247.2056 15.61924300281156
PROGRESS-MS 32          
1 65586U 25204A   26093.10136821  .00012012  00000+0  22784-3 0  9996
2 65586  51.6327 311.6710 0006236 265.7481  94.2795 15.48735493554509
YOTSUBA-KULOVER         
1 65941U 98067XN  26093.25807145  .00726654  24168-3  16293-2 0  9994
2 65941  51.6141 288.5678 0007281 257.8887 102.1306 15.97114848 27406
BOTAN                   
1 65943U 98067XQ  26092.58411318  .00534399  12701-3  13629-2 0  9997
2 65943  51.6177 292.3509 0007335 248.5782 111.4444 15.94753553 27296
HRC MONOBLOCK CAMERA    
1 66052U 98067XR  26092.86064991  .00089308  00000+0  89054-3 0  9997
2 66052  51.6271 303.3082 0003834 212.1629 147.9133 15.64898008 26176
HTV-X1                  
1 66174U 25241A   26093.23510325  .00004760  00000+0  16087-3 0  9990
2 66174  51.6362 314.7548 0007278 267.5183  92.4966 15.32512226 24705
SZ-21 MODULE            
1 66515U 25246C   26093.25289166  .00060256  00000+0  47388-3 0  9992
2 66515  41.4748  51.9348 0002891 225.3271 134.7336 15.70567905 21932
SHENZHOU-22             
1 66645U 25272A   26093.27849687  .00031513  00000+0  35412-3 0  9996
2 66645  41.4675  58.4057 0003772 112.9182 247.2056 15.61924300281152
SOYUZ-MS 28             
1 66664U 25275A   26093.10136821  .00012012  00000+0  22784-3 0  9992
2 66664  51.6327 311.6710 0006236 265.7481  94.2795 15.48735493559861
